STARLINK-1559           
1 46077U 20055BC  26068.23360559  .00042685  00000+0  14779-2 0  9995
2 46077  53.0254  76.0659 0004229  33.9710 326.1559 15.29461733309518
STARLINK-33733          
1 63435U 25069C   26068.43923018  .00015016  00000+0  51825-3 0  9991
2 63435  53.1579 143.8394 0001166  97.1111 263.0022 15.30189790 53364
